{
    "links": {
        "self": "http://www.neowsapp.com/rest/v1/neo/3454730?api_key=iIulBulltgU6a56xZRHN4H3l9WmuAYTsLGpBGhQ2"
    },
    "id": "3454730",
    "neo_reference_id": "3454730",
    "name": "(2009 FT4)",
    "designation": "2009 FT4",
    "nasa_jpl_url": "http://ssd.jpl.nasa.gov/sbdb.cgi?sstr=3454730",
    "absolute_magnitude_h": 20.7,
    "estimated_diameter": {
        "kilometers": {
            "estimated_diameter_min": 0.1925550782,
            "estimated_diameter_max": 0.4305662442
        },
        "meters": {
            "estimated_diameter_min": 192.5550781879,
            "estimated_diameter_max": 430.566244241
        },
        "miles": {
            "estimated_diameter_min": 0.1196481415,
            "estimated_diameter_max": 0.2675413778
        },
        "feet": {
            "estimated_diameter_min": 631.7424027221,
            "estimated_diameter_max": 1412.6189567557
        }
    },
    "is_potentially_hazardous_asteroid": false,
    "close_approach_data": [
        {
            "close_approach_date": "2009-02-15",
            "close_approach_date_full": "2009-Feb-15 01:35",
            "epoch_date_close_approach": 1234661700000,
            "relative_velocity": {
                "kilometers_per_second": "12.2628030203",
                "kilometers_per_hour": "44146.0908731369",
                "miles_per_hour": "27430.6640761444"
            },
            "miss_distance": {
                "astronomical": "0.3901327393",
                "lunar": "151.7616355877",
                "kilometers": "58363026.816545291",
                "miles": "36265103.2286193758"
            },
            "orbiting_body": "Earth"
        }
    ],
    "orbital_data": {
        "orbit_id": "8",
        "orbit_determination_date": "2017-04-06 09:00:59",
        "first_observation_date": "2009-03-19",
        "last_observation_date": "2009-04-27",
        "data_arc_in_days": 39,
        "observations_used": 28,
        "orbit_uncertainty": "7",
        "minimum_orbit_intersection": ".247561",
        "jupiter_tisserand_invariant": "3.102",
        "epoch_osculation": "2459000.5",
        "eccentricity": ".5506033537769385",
        "semi_major_axis": "2.671329313548922",
        "inclination": "15.25792055121354",
        "ascending_node_longitude": "162.3439605282659",
        "orbital_period": "1594.738840069385",
        "perihelion_distance": "1.200486434466238",
        "perihelion_argument": "325.3853411148067",
        "aphelion_distance": "4.142172192631605",
        "perihelion_time": "2459664.923132095361",
        "mean_anomaly": "210.0115996773974",
        "mean_motion": ".2257422914364693",
        "equinox": "J2000",
        "orbit_class": {
            "orbit_class_type": "AMO",
            "orbit_class_description": "Near-Earth asteroid orbits similar to that of 1221 Amor",
            "orbit_class_range": "1.017 AU < q (perihelion) < 1.3 AU"
        }
    },
    "is_sentry_object": false
}